{
  "type": "FeatureCollection",
  "features": [
    {
      "type": "Feature",
      "properties": {
        "norad_id": 66718,
        "name": "FLOCK 4H-15",
        "group": "last-30-days",
        "lat": -75.09526607510817,
        "lon": -140.62893736505438,
        "alt_km": 519.7685733968228,
        "timestamp": "2025-12-23T05:02:10.749356+00:00",
        "meta_object_name": "FLOCK 4H-15",
        "meta_object_id": "2025-276BE",
        "meta_epoch": "2025-12-22T21:34:28.765056",
        "meta_mean_motion": 15.17105455,
        "meta_eccentricity": 0.00031677,
        "meta_inclination": 97.4422,
        "meta_ra_of_asc_node": 68.4792,
        "meta_arg_of_pericenter": 268.9628,
        "meta_mean_anomaly": 91.1243,
        "meta_ephemeris_type": 0,
        "meta_classification_type": "U",
        "meta_norad_cat_id": 66718,
        "meta_element_set_no": 999,
        "meta_rev_at_epoch": 366,
        "meta_bstar": 0.00052920487,
        "meta_mean_motion_dot": 0.0001043,
        "meta_mean_motion_ddot": 0,
        "tle_line1": "1 66718U 25276BE  25356.89894404  .00010430  00000+0  52920-3 0  9995",
        "tle_line2": "2 66718  97.4422  68.4792 0003167 268.9628  91.1243 15.17105455  3661"
      },
      "geometry": {
        "type": "Point",
        "coordinates": [
          -140.62893736505438,
          -75.09526607510817
        ]
      }
    },
    {
      "type": "Feature",
      "properties": {
        "norad_id": 66719,
        "name": "FLOCK 4H-16",
        "group": "last-30-days",
        "lat": -79.54814965415505,
        "lon": -156.338364938984,
        "alt_km": 530.4722743201137,
        "timestamp": "2025-12-23T05:02:10.749368+00:00",
        "meta_object_name": "FLOCK 4H-16",
        "meta_object_id": "2025-276BF",
        "meta_epoch": "2025-12-22T19:57:31.130784",
        "meta_mean_motion": 15.15910447,
        "meta_eccentricity": 0.00054456,
        "meta_inclination": 97.4432,
        "meta_ra_of_asc_node": 68.4207,
        "meta_arg_of_pericenter": 120.1614,
        "meta_mean_anomaly": 240.0159,
        "meta_ephemeris_type": 0,
        "meta_classification_type": "U",
        "meta_norad_cat_id": 66719,
        "meta_element_set_no": 999,
        "meta_rev_at_epoch": 365,
        "meta_bstar": -0.042102751,
        "meta_mean_motion_dot": -0.00749363,
        "meta_mean_motion_ddot": 0,
        "tle_line1": "1 66719U 25276BF  25356.83161031 -.00749363  00000+0 -42103-1 0  9999",
        "tle_line2": "2 66719  97.4432  68.4207 0005445 120.1614 240.0159 15.15910447  3652"
      },
      "geometry": {
        "type": "Point",
        "coordinates": [
          -156.338364938984,
          -79.54814965415505
        ]
      }
    },
    {
      "type": "Feature",
      "properties": {
        "norad_id": 66720,
        "name": "FLOCK 4H-17",
        "group": "last-30-days",
        "lat": -22.15363380027484,
        "lon": 71.87847222462716,
        "alt_km": 518.6818303413374,
        "timestamp": "2025-12-23T05:02:10.749378+00:00",
        "meta_object_name": "FLOCK 4H-17",
        "meta_object_id": "2025-276BG",
        "meta_epoch": "2025-12-22T22:48:24.265440",
        "meta_mean_motion": 15.1806274,
        "meta_eccentricity": 0.00026614,
        "meta_inclination": 97.4442,
        "meta_ra_of_asc_node": 68.5715,
        "meta_arg_of_pericenter": 191.0625,
        "meta_mean_anomaly": 169.0551,
        "meta_ephemeris_type": 0,
        "meta_classification_type": "U",
        "meta_norad_cat_id": 66720,
        "meta_element_set_no": 999,
        "meta_rev_at_epoch": 367,
        "meta_bstar": 0.00053593564,
        "meta_mean_motion_dot": 0.00010858,
        "meta_mean_motion_ddot": 0,
        "tle_line1": "1 66720U 25276BG  25356.95028085  .00010858  00000+0  53594-3 0  9991",
        "tle_line2": "2 66720  97.4442  68.5715 0002661 191.0625 169.0551 15.18062740  3671"
      },
      "geometry": {
        "type": "Point",
        "coordinates": [
          71.87847222462716,
          -22.15363380027484
        ]
      }
    },
    {
      "type": "Feature",
      "properties": {
        "norad_id": 66721,
        "name": "FLOCK 4H-18",
        "group": "last-30-days",
        "lat": -77.59312515550202,
        "lon": -147.6608796994374,
        "alt_km": 520.1581824837967,
        "timestamp": "2025-12-23T05:02:10.749387+00:00",
        "meta_object_name": "FLOCK 4H-18",
        "meta_object_id": "2025-276BH",
        "meta_epoch": "2025-12-22T21:33:41.960448",
        "meta_mean_motion": 15.17141042,
        "meta_eccentricity": 0.00025906,
        "meta_inclination": 97.4381,
        "meta_ra_of_asc_node": 68.4652,
        "meta_arg_of_pericenter": 282.9651,
        "meta_mean_anomaly": 77.1293,
        "meta_ephemeris_type": 0,
        "meta_classification_type": "U",
        "meta_norad_cat_id": 66721,
        "meta_element_set_no": 999,
        "meta_rev_at_epoch": 366,
        "meta_bstar": 0.00060295121,
        "meta_mean_motion_dot": 0.00011907,
        "meta_mean_motion_ddot": 0,
        "tle_line1": "1 66721U 25276BH  25356.89840232  .00011907  00000+0  60295-3 0  9993",
        "tle_line2": "2 66721  97.4381  68.4652 0002590 282.9651  77.1293 15.17141042  3666"
      },
      "geometry": {
        "type": "Point",
        "coordinates": [
          -147.6608796994374,
          -77.59312515550202
        ]
      }
    },
    {
      "type": "Feature",
      "properties": {
        "norad_id": 66722,
        "name": "FLOCK 4H-19",
        "group": "last-30-days",
        "lat": -6.6646843542934855,
        "lon": 69.68701714479235,
        "alt_km": 516.5576863666056,
        "timestamp": "2025-12-23T05:02:10.749397+00:00",
        "meta_object_name": "FLOCK 4H-19",
        "meta_object_id": "2025-276BJ",
        "meta_epoch": "2025-12-22T21:09:24.818400",
        "meta_mean_motion": 15.18229628,
        "meta_eccentricity": 0.00022816,
        "meta_inclination": 97.439,
        "meta_ra_of_asc_node": 68.4894,
        "meta_arg_of_pericenter": 154.2063,
        "meta_mean_anomaly": 205.9285,
        "meta_ephemeris_type": 0,
        "meta_classification_type": "U",
        "meta_norad_cat_id": 66722,
        "meta_element_set_no": 999,
        "meta_rev_at_epoch": 295,
        "meta_bstar": 0.00050242984,
        "meta_mean_motion_dot": 0.00010223,
        "meta_mean_motion_ddot": 0,
        "tle_line1": "1 66722U 25276BJ  25356.88153725  .00010223  00000+0  50243-3 0  9999",
        "tle_line2": "2 66722  97.4390  68.4894 0002281 154.2063 205.9285 15.18229628  2951"
      },
      "geometry": {
        "type": "Point",
        "coordinates": [
          69.68701714479235,
          -6.6646843542934855
        ]
      }
    },
    {
      "type": "Feature",
      "properties": {
        "norad_id": 66723,
        "name": "FLOCK 4H-20",
        "group": "last-30-days",
        "lat": -3.2027641784832523,
        "lon": 69.2466677057959,
        "alt_km": 516.3297733525278,
        "timestamp": "2025-12-23T05:02:10.749409+00:00",
        "meta_object_name": "FLOCK 4H-20",
        "meta_object_id": "2025-276BK",
        "meta_epoch": "2025-12-22T19:33:36.676512",
        "meta_mean_motion": 15.18297913,
        "meta_eccentricity": 0.00027476,
        "meta_inclination": 97.4424,
        "meta_ra_of_asc_node": 68.4391,
        "meta_arg_of_pericenter": 170.7813,
        "meta_mean_anomaly": 189.3472,
        "meta_ephemeris_type": 0,
        "meta_classification_type": "U",
        "meta_norad_cat_id": 66723,
        "meta_element_set_no": 999,
        "meta_rev_at_epoch": 290,
        "meta_bstar": 0.00056351281,
        "meta_mean_motion_dot": 0.00011499,
        "meta_mean_motion_ddot": 0,
        "tle_line1": "1 66723U 25276BK  25356.81500783  .00011499  00000+0  56351-3 0  9995",
        "tle_line2": "2 66723  97.4424  68.4391 0002747 170.7813 189.3472 15.18297913  2905"
      },
      "geometry": {
        "type": "Point",
        "coordinates": [
          69.2466677057959,
          -3.2027641784832523
        ]
      }
    },
    {
      "type": "Feature",
      "properties": {
        "norad_id": 66724,
        "name": "FLOCK 4H-21",
        "group": "last-30-days",
        "lat": -0.20070317938772364,
        "lon": 68.84086309970863,
        "alt_km": 515.6413791467694,
        "timestamp": "2025-12-23T05:02:10.749419+00:00",
        "meta_object_name": "FLOCK 4H-21",
        "meta_object_id": "2025-276BL",
        "meta_epoch": "2025-12-22T21:07:44.087232",
        "meta_mean_motion": 15.18358563,
        "meta_eccentricity": 0.00026155,
        "meta_inclination": 97.4391,
        "meta_ra_of_asc_node": 68.4906,
        "meta_arg_of_pericenter": 167.151,
        "meta_mean_anomaly": 192.9791,
        "meta_ephemeris_type": 0,
        "meta_classification_type": "U",
        "meta_norad_cat_id": 66724,
        "meta_element_set_no": 999,
        "meta_rev_at_epoch": 291,
        "meta_bstar": 0.0005609866,
        "meta_mean_motion_dot": 0.00011467,
        "meta_mean_motion_ddot": 0,
        "tle_line1": "1 66724U 25276BL  25356.88037138  .00011467  00000+0  56099-3 0  9996",
        "tle_line2": "2 66724  97.4391  68.4906 0002615 167.1510 192.9791 15.18358563  2913"
      },
      "geometry": {
        "type": "Point",
        "coordinates": [
          68.84086309970863,
          -0.20070317938772364
        ]
      }
    }
  ]
}